ONEWEB-0578             
1 56067U 23043X   26199.13815970  .00000026  00000+0  30295-4 0  9997
2 56067  87.9234 237.8133 0002076  85.7464 274.3907 13.21826495162322
ONEWEB-0579             
1 56068U 23043Y   26199.81099465  .00000067  00000+0  13124-3 0  9992
2 56068  87.9240 237.6779 0002088 102.6359 257.5008 13.21823963162422
ONEWEB-0581             
1 56069U 23043Z   26199.76499266  .00000042  00000+0  77115-4 0  9994
2 56069  87.9071 222.5111 0001498  92.6720 267.4582 13.16596002163111
ONEWEB-0609             
1 56070U 23043AA  26199.66912049  .00000081  00000+0  17994-3 0  9995
2 56070  87.8977 252.9380 0002150  97.1893 262.9482 13.15547095160572
ONEWEB-0613             
1 56071U 23043AB  26199.66674402  .00000054  00000+0  10947-3 0  9995
2 56071  87.8977 252.9510 0002228 102.9898 257.1481 13.15547876160576
ONEWEB-0630             
1 56072U 23043AC  26199.66198103 -.00000010  00000+0 -59441-4 0  9992
2 56072  87.8984 252.9256 0002209 103.0573 257.0804 13.15549581160565
ONEWEB-0632             
1 56073U 23043AD  26199.58118295  .00000066  00000+0  14244-3 0  9998
2 56073  87.8980 252.9582 0001835  98.6875 261.4463 13.15548044160554
ONEWEB-0633             
1 56074U 23043AE  26199.57484168 -.00000026  00000+0 -10276-3 0  9992
2 56074  87.8988 252.9373 0002444 102.6605 257.4798 13.15548576160539
ONEWEB-0634             
1 56075U 23043AF  26199.56058328 -.00000171  00000+0 -48877-3 0  9996
2 56075  87.8982 252.9779 0002268  89.8745 270.2645 13.15547868160525
ONEWEB-0635             
1 56076U 23043AG  26199.86005657 -.00000112  00000+0 -33060-3 0  9990
2 56076  87.8991 252.8834 0001793  97.0240 263.1094 13.15547938160594
ONEWEB-0636             
1 56077U 23043AH  26199.54790066 -.00000072  00000+0 -22542-3 0  9999
2 56077  87.8988 252.9511 0001847  96.9769 263.1571 13.15547662160536
ONEWEB-0637             
1 56078U 23043AJ  26199.69368199  .00002641  00000+0  69813-2 0  9997
2 56078  87.8985 252.9364 0002151  94.8950 265.2426 13.15534153160575
ONEWEB-0647             
1 56079U 23043AK  26199.84103647  .00000088  00000+0  20090-3 0  9998
2 56079  87.8983 252.9198 0001982 100.5912 259.5442 13.15549282160587
ONEWEB-0651             
1 56080U 23043AL  26199.83629192  .00000245  00000+0  61666-3 0  9996
2 56080  87.8980 252.9140 0001828  94.0195 266.1145 13.15548651161788
ONEWEB-0718             
1 56081U 23043AM  26199.14701211  .00000186  00000+0  46110-3 0  9995
2 56081  87.8988 253.0316 0002496  90.9648 269.1768 13.15549946160505
ONEWEB-0561             
1 56710U 23068A   26199.71249302 -.00000015  00000+0 -69361-4 0  9999
2 56710  87.9183 268.1615 0001804 105.5769 254.5563 13.20770571153666
ONEWEB-0668             
1 56711U 23068B   26199.51167321  .00000108  00000+0  24844-3 0  9995
2 56711  87.9075 222.5502 0002225  79.6384 280.4997 13.16595376155909
ONEWEB-0676             
1 56712U 23068C   26199.82355983  .00002209  00000+0  57404-2 0  9994
2 56712  87.9084 222.4941 0001901  95.3259 264.8089 13.16615090155861
ONEWEB-0677             
1 56713U 23068D   26199.70071979 -.00000057  00000+0 -17168-3 0  9997
2 56713  87.9178 268.1554 0001841  89.2177 270.9167 13.20771301153964
ONEWEB-0678             
1 56714U 23068E   26199.57167404 -.00000065  00000+0 -20649-3 0  9999
2 56714  87.8988 252.9423 0002101 105.1520 254.9843 13.15548049153417
ONEWEB-0679             
1 56715U 23068F   26199.78241639 -.00000058  00000+0 -18447-3 0  9991
2 56715  87.9079 222.4938 0001874  77.2148 282.9193 13.16594138155887
ONEWEB-0680             
1 56716U 23068G   26199.81268316  .00000043  00000+0  72665-4 0  9992
2 56716  87.9240 237.6792 0002160  78.9868 281.1509 13.21825775155275
ONEWEB-0681             
1 56717U 23068H   26199.79332951 -.00000071  00000+0 -20306-3 0  9994
2 56717  87.9237 237.6833 0001111 101.3591 258.7668 13.21827517155268
ONEWEB-0682             
1 56718U 23068J   26199.67150162  .00000157  00000+0  38346-3 0  9990
2 56718  87.8986 252.9224 0002099  83.4416 276.6953 13.15548354153597
ONEWEB-0683             
1 56719U 23068K   26199.69526417 -.00000042  00000+0 -14522-3 0  9998
2 56719  87.8994 252.9178 0002198  90.7639 269.3744 13.15548029153566
ONEWEB-0684             
1 56720U 23068L   26199.70318052 -.00000089  00000+0 -26959-3 0  9994
2 56720  87.8991 252.9059 0003149 116.2645 243.8809 13.15548942153395
ONEWEB-0686             
1 56721U 23068M   26199.81883845  .00000049  00000+0  93747-4 0  9998
2 56721  87.9069 222.5071 0002393  91.2270 268.9135 13.16593765155875
ONEWEB-0694             
1 56722U 23068N   26199.14119958  .00000034  00000+0  55738-4 0  9994
2 56722  87.9091 222.6124 0002232  81.7958 278.3426 13.16593107155845
ONEWEB-0696             
1 56723U 23068P   26199.58433763 -.00000039  00000+0 -13823-3 0  9991
2 56723  87.8975 252.9658 0002129 110.6009 249.5349 13.15549568153492
ONEWEB-0703             
1 56724U 23068Q   26199.66991051  .00000110  00000+0  25907-3 0  9994
2 56724  87.8980 252.9300 0001873 123.6790 236.4519 13.15548119153393
ONEWEB-0721             
1 56725U 23068R   26199.68973963  .00000055  00000+0  97958-4 0  9993
2 56725  86.6738  75.4587 0001748  80.2627 279.8703 13.22470876162102
ONEWEB-0015             
1 61594U 24188A   26199.43853855 -.00000538  00000+0 -15538-2 0  9997
2 61594  87.8883  14.8690 0001439  78.0315 282.0974 13.11416980 88550
ONEWEB-0687             
1 61595U 24188B   26199.82022067  .00000048  00000+0  91366-4 0  9993
2 61595  87.9145 359.5822 0001838  77.4833 282.6504 13.17650939 90064
ONEWEB-0688             
1 61596U 24188C   26199.84890045 -.00000049  00000+0 -15926-3 0  9995
2 61596  87.9146 359.5763 0000965  58.0763 302.0462 13.17647259 90068
ONEWEB-0689             
1 61597U 24188D   26199.01468012  .00000506  00000+0  13912-2 0  9998
2 61597  87.8897  14.9159 0002074  84.7682 275.3683 13.11417313 88492
ONEWEB-0690             
1 61598U 24188E   26199.48263994  .00000566  00000+0  15608-2 0  9992
2 61598  87.8894  14.8330 0001715 113.2048 246.9261 13.11416167 88734
ONEWEB-0691             
1 61599U 24188F   26199.47755613  .00000570  00000+0  15726-2 0  9992
2 61599  87.8904  14.7456 0001633  81.7499 278.3814 13.11416506 88586
ONEWEB-0692             
1 61600U 24188G   26199.49788222 -.00000034  00000+0 -13199-3 0  9999
2 61600  87.8884  14.8488 0002636  92.6905 267.4524 13.11415829 88572
ONEWEB-0693             
1 61601U 24188H   26199.86072404 -.00000164  00000+0 -45553-3 0  9992
2 61601  87.9140 359.5926 0001562 119.0657 241.0631 13.17648903 90050
ONEWEB-0695             
1 61602U 24188J   26199.24527186  .00000629  00000+0  17395-2 0  9993
2 61602  87.8883  14.8915 0002339  86.9894 273.1502 13.11417460 88530
ONEWEB-0697             
1 61603U 24188K   26199.73525449 -.00000340  00000+0 -99510-3 0  9990
2 61603  87.8886  14.7843 0002595  95.6577 264.4847 13.11415561 88582
ONEWEB-0698             
1 61604U 24188L   26199.02655595  .00000343  00000+0  93295-3 0  9994
2 61604  87.8884  14.9388 0002614 115.6669 244.4729 13.11415379 88511
ONEWEB-0699             
1 61605U 24188M   26199.82726959  .00000635  00000+0  17828-2 0  9997
2 61605  87.8818  29.9599 0002469  95.5675 264.5734 13.10372827 87450
ONEWEB-0700             
1 61606U 24188N   26199.29445427  .00000475  00000+0  13234-2 0  9996
2 61606  87.8834  29.9804 0002510  94.4013 265.7401 13.10369169 87379
ONEWEB-0701             
1 61607U 24188P   26199.23506234 -.00000127  00000+0 -40003-3 0  9996
2 61607  87.8817  30.0782 0002597  97.3041 262.8381 13.10369759 87377
ONEWEB-0702             
1 61608U 24188Q   26199.45381123 -.00000136  00000+0 -41890-3 0  9994
2 61608  87.8906  14.7655 0002886  90.9531 269.1928 13.11418763 88581
ONEWEB-0704             
1 61609U 24188R   26199.52861878  .00000478  00000+0  13326-2 0  9992
2 61609  87.8822  30.0101 0002867  86.9662 273.1794 13.10369760 87390
ONEWEB-0705             
1 61610U 24188S   26199.76278503  .00000417  00000+0  11596-2 0  9997
2 61610  87.8822  29.9694 0002601  71.3217 288.8193 13.10370484 79590
ONEWEB-0706             
1 61611U 24188T   26199.82387388  .00000684  00000+0  19236-2 0  9992
2 61611  87.8820  29.9606 0002435  84.0971 276.0434 13.10373601 87528
ONEWEB-0707             
1 61612U 24188U   26199.83065278  .00000598  00000+0  16756-2 0  9993
2 61612  87.8824  29.9548 0002418  85.3839 274.7564 13.10370429 87463
ONEWEB-0708             
1 61613U 24188V   26199.46751635 -.00000301  00000+0 -89738-3 0  9997
2 61613  87.8813  30.0428 0001947  70.7239 289.4098 13.10368630 87398
